[{"OBJECT_NAME":"AEROCUBE 5C","OBJECT_ID":"2015-058B","EPOCH":"2026-03-09T17:05:14.563104","MEAN_MOTION":14.90857126,"ECCENTRICITY":0.01306722,"INCLINATION":64.7674,"RA_OF_ASC_NODE":211.9094,"ARG_OF_PERICENTER":102.486,"MEAN_ANOMALY":259.0908,"EPHEMERIS_TYPE":0,"CLASSIFICATION_TYPE":"U","NORAD_CAT_ID":40965,"ELEMENT_SET_NO":999,"REV_AT_EPOCH":35082,"BSTAR":0.0004279104,"MEAN_MOTION_DOT":4.804e-5,"MEAN_MOTION_DDOT":0},{"OBJECT_NAME":"STARLINK-5748","OBJECT_ID":"2023-020AM","EPOCH":"2026-03-09T22:00:01.999584","MEAN_MOTION":15.12157009,"ECCENTRICITY":9.806e-5,"INCLINATION":43.001,"RA_OF_ASC_NODE":337.0108,"ARG_OF_PERICENTER":295.4837,"MEAN_ANOMALY":231.5743,"EPHEMERIS_TYPE":0,"CLASSIFICATION_TYPE":"U","NORAD_CAT_ID":55604,"ELEMENT_SET_NO":999,"REV_AT_EPOCH":578,"BSTAR":0.001003115,"MEAN_MOTION_DOT":0.00017424,"MEAN_MOTION_DDOT":0}]
